QIANFAN-57              
1 62787U 25016C   25223.58134194  .00000129  00000+0  18070-3 0  9993
2 62787  88.9841 115.9025 0002460  89.5422 270.6011 13.50958629 30575
QIANFAN-58              
1 62788U 25016D   25223.55257048  .00000126  00000+0  17629-3 0  9991
2 62788  88.9810 115.7754 0013987 348.1777  11.9043 13.50957781 30616
QIANFAN-59              
1 62789U 25016E   25223.56493668  .00000118  00000+0  16425-3 0  9997
2 62789  88.9834 115.8155 0014996 350.7817   9.3057 13.50962082 30610
QIANFAN-60              
1 62790U 25016F   25223.55652183  .00000123  00000+0  17262-3 0  9993
2 62790  88.9815 115.8192 0015383 348.3568  11.7225 13.50959230 30591
QIANFAN-61              
1 62791U 25016G   25223.56906831  .00000124  00000+0  17287-3 0  9995
2 62791  88.9883 115.8920 0014771 347.3333  12.7445 13.50965047 30616
QIANFAN-62              
1 62792U 25016H   25223.57302095  .00000127  00000+0  17744-3 0  9990
2 62792  88.9829 115.8266 0016174 346.9410  13.1320 13.50958941 30601
QIANFAN-63              
1 62793U 25016J   25223.58539787  .00000130  00000+0  18301-3 0  9996
2 62793  88.9835 115.7657 0016137 351.5063   8.5812 13.50956033 30645
QIANFAN-64              
1 62794U 25016K   25223.57711565  .00000133  00000+0  18707-3 0  9995
2 62794  88.9822 115.7632 0013775 346.4243  13.6536 13.50958520 30635
